STARLINK-36909          
1 67946U 26037Q   26070.25002315  .00033891  00000+0  16306-3 0  9995
2 67946  42.9983 188.8642 0001496 257.6314 331.1609 15.81987859  3449
STARLINK-36920          
1 67947U 26037R   26070.25002315  .00017965  00000+0  87733-4 0  9993
2 67947  42.9984 188.8530 0001606 252.7357 340.3257 15.82000186  3444
STARLINK-36873          
1 67948U 26037S   26070.25002315  .00055148  00000+0  26335-3 0  9999
2 67948  42.9984 188.8424 0001582 259.8274 337.5316 15.81968289  3446
STARLINK-36863          
1 67949U 26037T   26070.25002315  .00020263  00000+0  98620-4 0  9997
2 67949  42.9984 188.8322 0001460 252.1271 349.4795 15.81997383  3442
STARLINK-36887          
1 67950U 26037U   26070.25002315  .00023075  00000+0  11196-3 0  9995
2 67950  42.9985 188.8207 0001681 288.5231 317.3616 15.81989657  3442
STARLINK-36897          
1 67951U 26037V   26070.25002315  .00037017  00000+0  17781-3 0  9993
2 67951  42.9987 188.8105 0001085 278.1280 332.0317 15.81987835  3447
STARLINK-36381          
1 67952U 26037W   26070.25002315  .00051291  00000+0  24502-3 0  9993
2 67952  42.9988 188.7890 0001734 245.7237  12.9773 15.81984636  3448
STARLINK-36824          
1 67953U 26037X   26070.25002315  .00070866  00000+0  33699-3 0  9990
2 67953  42.9985 188.7996 0001324 263.3421 351.0895 15.81974162  3444
STARLINK-36869          
1 67954U 26037Y   26070.25002315  .00028266  00000+0  13650-3 0  9993
2 67954  42.9985 188.7777 0001951 272.2100 350.7708 15.81987427  3448
STARLINK-36872          
1 67955U 26037Z   26070.25002315  .00016585  00000+0  81214-4 0  9997
2 67955  42.9988 188.7556 0001808 262.4662   9.0544 15.81997357  3447
STARLINK-36918          
1 67956U 26037AA  26070.25002315  .00060196  00000+0  28701-3 0  9996
2 67956  42.9988 188.7454 0001468 260.8059  14.9949 15.81971321  3446
STARLINK-36829          
1 67957U 26037AB  26070.25002315  .00055241  00000+0  26369-3 0  9990
2 67957  42.9987 188.7669 0001663 262.5827   4.6717 15.81975501  3446
